School Name,Full URL,Address,City,District,State,Phone,Email,Website
"1.Vantage Hall Girl’s Residential School, Dehradun",https://www.euttaranchal.com/schools/vantage-hall-girls-residential-school-dehradun.php,"The Yellow Brick Road, Doonga, Dehradun - 248007, Uttarakhand, India","Dehradun, Uttarakhand",Dehradun,Uttarakhand,"0135 - 2694305/304, +91-8191912999","contactus@vantagehall.org, admissions@vantagehall.org",https://www.vantagehall.org
2.Tula's International School Dehradun,https://www.euttaranchal.com/schools/tulas-international-school-dehradun.php,"Dhoolkot, P.O - Selaqui, Chakrata Road, Dehradun 248197, Uttarakhand, India","Dehradun, Uttarakhand",Dehradun,Uttarakhand,"+91-0135-2699444, +91-9458311000",info@tis.edu.in,https://www.tis.edu.in
3.The TonsBridge School Dehradun,https://www.euttaranchal.com/schools/the-tonsbridge-school-dehradun.php,"Tons Confluence, Subharti Hospital Road, Dehradun, Uttarakhand 248001",Dehradun,Dehradun,Uttarakhand,"+ 91 - 9897292071, + 91 - 8171999662",info@thetonsbridge.com,https://www.thetonsbridge.com
4.The Doon School Dehradun,https://www.euttaranchal.com/schools/doon-school-dehradun.php,"The Mall, Dehradun 248001, Uttarakhand, India","Dehradun, Uttarakhand",Dehradun,Uttarakhand,"+91-135-2526406,  +91-135-2526400","info@doonschool.com, admissions@doonschool.com",www.doonschool.com
5.Welham Boys School Dehradun,https://www.euttaranchal.com/schools/welham-boys-school-dehradun.php,"5, Circular Road, Dalanwala, Dehradun - 248001, Uttarakhand, India","Dehradun, Uttarakhand",Dehradun,Uttarakhand,"+91-135 -2657120, 2652935",welham1937@welhamboys.org,welhamboys.org
6.Welham Girls School Dehradun,https://www.euttaranchal.com/schools/welham-girls-school-dehradun.php,"No. 12 - Circular Road, Dalanwala, Dehradun - 248001, Uttarakhand, India","Dehradun, Uttarakhand",Dehradun,Uttarakhand,"+91-0135-2657223, 2659690, 2657378, 6670100","mainschool@welhamgirls.com, wgs_admissions@welhamgirls.com",www.welhamgirls.com
7.Rashtriya Indian Military College RIMC Dehradun,https://www.euttaranchal.com/schools/rashtriya-indian-military-college-dehradun.php,"Garhi Cantt, Dehradun - 248003, Uttarakhand, India","Dehradun, Uttarakhand",,,0135 - 2752083,rimcollege@yahoo.com,http://www.rimc.gov.in/rimcindex.aspx
8.Convent Of Jesus & Mary Dehradun,https://www.euttaranchal.com/schools/convent-of-jesus-mary-dehradun.php,"16, Convent Road, Dehradun- 248001, Uttarakhand, India","Dehradun, Uttarakhand",Dehradun,Uttarakhand,"0135 - 2651390, 2713560",contact@cjmdehradun.in jandmcjm@hotmail.com,www.cjmdehradun.in
9.Hopetown Girls School Dehradun,https://www.euttaranchal.com/schools/hopetown-girls-school-dehradun.php,"Rajawala Road (Off Chakrata Road 19th Milestone), P.O. Selakui, Dehradun - 248197, Uttarakhand, India","Dehradun, Uttarakhand",Dehradun,Uttarakhand,"0135-2698554, 0135-2699521, 0135-2698022, 09068716020","schooloffice@hopetown.in, admissions@hopetown.in",www.hopetown.in
10.Kasiga School Dehradun,https://www.euttaranchal.com/schools/kasiga-school-dehradun.php,Village Purkul Off Dehradun - Mussoorie Highway Dehradun - 248 009 Uttarakhand. INDIA,"Dehradun, Uttarakhand",Dehradun,Uttarakhand,"0135-7199100, 9917480901, 9917480984","admissions@kasigaschool.com, secyadmin@kasigaschool.com,",www.kasigaschool.com
"11.Doon International School, City Campus, Dehradun",https://www.euttaranchal.com/schools/doon-international-school-dehradun.php,"Pari Mahal, 32- Curzon Road, Dehra Dun-24800, Uttarakhand, India","Dehradun, Uttarakhand",Dehradun,Uttarakhand,"0135-2658491, 2656088, +91-7466002949, 7906523070","info@disdehradun.com, dis.parimahal7@gmail.com; accounts@disdehradun.com; contact@disdehradun.com",www.dooninternational.com
Joseph’s Academy Dehradun,https://www.euttaranchal.com/schools/st-josephs-academy-dehradun.php,"Rajpur Road, Dehradun - 248 001, Uttarakhand, India","Dehradun, Uttarakhand",,,0135-2712071 / 2712426,school_office@stjosephacademy.in,www.stjosephacademy.in
"13.Doon International School, Riverside Campus, Dehradun",https://www.euttaranchal.com/schools/doon-international-school-riverside-campus-dehradun.php,"Paundha, Dehradun - 248007, Uttarakhand India","Dehradun, Uttarakhand",Dehradun,Uttarakhand,"+ 91 - 9627598500, 7253000301","admissions@disriverside.com, enquiry@disriverside.com",www.disriverside.com
"Thomas’ College, Dehradun",https://www.euttaranchal.com/schools/st-thomas-dehradun.php,"2 Cross Road, Dehradun, Uttarakhand, India","Dehradun, Uttarakhand",,,+91-135-2654374 / 2710743,stthomascollegedehradun@gmail.com,http://www.stthomascollege.in/
15.Doon Global School Dehradun,https://www.euttaranchal.com/schools/doon-global-school-dehradun.php,"14th KM Stone, Jhajra, Chakrata Road, Dehradun-248007, UttaraKhand, India","Dehradun, Uttarakhand",Dehradun,Uttarakhand,+91 8530 488 345,admissions@doonglobalschool.com,www.doonglobalschool.net
"16.Selaqui International School, Dehradun",https://www.euttaranchal.com/schools/selaqui-international-school-dehradun.php,"Chakrata Road, Dehradun -248197, Uttarakhand, India","Dehradun, Uttarakhand",Dehradun,Uttarakhand,"General: 7253051000, Admissions:   7669 040404","selaqui@selaqui.org, admissions@selaqui.org",www.selaqui.org
17.Asian School Dehradun,https://www.euttaranchal.com/schools/asian-school-dehradun.php,"Asian Acres, Vasant Vihar (Indira Nagar), Dehradun – 248006, Uttarakhand, India","Dehradun, Uttarakhand",Dehradun,Uttarakhand,+91-8859500084,"info@theasianschool.net, theasianschool@gmail.com",https://www.theasianschool.net
18.Birla Open Minds International School,https://www.euttaranchal.com/schools/birla-open-minds-international-school.php,"Shimla Bypass Rd, Shiniwala, P.O, Sherpur, Dehradun, Uttarakhand",Dehradun,Dehradun,Uttarakhand,"9760700444, 9760300444",admission@bomis.org,http://birlaopenmindsdehradun.org/
"19.Ecole Globale International Girls School, Dehradun",https://www.euttaranchal.com/schools/ecole-globale-international-girls-school-dehradun.php,"Hurrawala, Chakrata Road, Dehradun, Uttarakhand","Dehradun, Uttarakhand",Dehradun,Uttarakhand,"+91-0135-3985400, 3985401,+91-9557291888","info@ecoleglobale.com, ecoleglobale@gmail.com",https://www.ecoleglobale.com
"20.St Judes School, Dehradun",https://www.euttaranchal.com/schools/st-judes-school-dehradun.php,"West Canal Road, P O Majra, Dehradun - 248001, Uttarakhand, India","Dehradun, Uttarakhand",,,"+91-0135-2640930, 2642828","info@stjudes.in, stjudeschool@rediffmail.com",http://www.stjudes.in/
"Public School, Dehradun",https://www.euttaranchal.com/schools/ami-public-school-dehradun.php,"Salawala,Dehradun, Uttarakhand",Dehradun,Dehradun,Uttarakhand,7895321606,amipublicschool@gmail.com,http://amipublicschool.com/
"22.Acacia Public School, Dehradun",https://www.euttaranchal.com/schools/acacia-public-school-dehradun.php,"Nathanpur, P.O. Nehru Gram, Dehradun, Uttarakhand",Dehradun,Dehradun,Uttarakhand,0135-2662629,acacia.school@yahoo.com,http://www.acaciapublicschool.in
23.Aditya Birla Public School Dehradun,https://www.euttaranchal.com/schools/aditya-birla-public-school-dehradun.php,"329 Garhi Cantonment, Maatri Chhaya, Dehra Dun, Uttarakhand",Dehradun,Dehradun,Uttarakhand,7088560007,shyamlal.ganguli@adityabirla.com,https://www.adityabirlaschools.com/
24.Adroit Progressive School Dehradun,https://www.euttaranchal.com/schools/adroit-progressive-school-dehradun.php,"22/1, Circular Road, Dalanwala Dehradun, Uttrakhand",Dehradun,Dehradun,Uttarakhand,"0135-2711945, +91-9897420422",maplebeardoon@hotmail.com,http://adroitschooldoon.com/
25.Ann Mary School Dehradun,https://www.euttaranchal.com/schools/ann-mary-school-dehradun.php,"General Mahadeo Singh Road, Dehradun, Uttarakhand - 248001 (India)","Dehradun, Uttarakhand",,,0135-2762923,annmaryschoolddn@yahoo.in,www.annmaryschool.com
"26.Apollo International School, Dehradun",https://www.euttaranchal.com/schools/apollo-international-school-dehradun.php,"Sahastradhara Road, Dehradun, Uttarakhand",Dehradun,Dehradun,Uttarakhand,"+91 135-2788451,+91 9837185103",apollointernationalschool@gmail.com,http://www.apollointernationalschool.com/
"27.Army Public School Birpur, Dehradun",https://www.euttaranchal.com/schools/army-public-school-birpur-dehradun.php,"Birpur, Dehradun - 248001, Uttarakhand, India","Dehradun, Uttarakhand",,,0135 - 2552041,apsbirpur@gmail.com,www.apsbirpur.edu.in
"28.Army Public School Clement Town, Dehradun",https://www.euttaranchal.com/schools/army-public-school-clement-town-dehradun.php,"Clement Town, Dehradun - 248002, Uttarakhand, India","Dehradun, Uttarakhand",,,0135 - 2643584,apsclementtown@gmail.com,www.apsclementtown.org
"29.Bachpan Playschool, Dehradun",https://www.euttaranchal.com/pre-schools/bachpan-playschool-dehradun.php,,"Dehradun, Uttarakhand",,,,,
"31.Beverly Hills Shalini School, Dehradun",https://www.euttaranchal.com/schools/beverly-hills-shalini-school.php,"Sahastradhara Road P.O. Kandoli, Dehradun - 248001, Uttarakhand","Dehradun, Uttarakhand",,,"7060074415, 7500355901, 8279756706, +91-135-2781629","info@beverlyhills.co.in, sansriongc@gmail.com",www.beverlyhills.co.in
"32.Bright Angels Senior Secondary School, Dehradun",https://www.euttaranchal.com/schools/bright-angels-senior-secondary-school-dehradun.php,"Chakrata road, Post Office Ambari, Jeevangarh, Vikas Nagar, Dehradun, Uttarakhand, India","Dehradun, Uttarakhand",,,"+ 91 - 01360 - 221333, + 91 - 9411112596",brightangels.school@yahoo.com,www.brightangelsschool.com
"33.Bright Space School, Dehradun",https://www.euttaranchal.com/schools/bright-space-school-dehradun.php,"Opposite Petrol Pump, Balawala, Dehradun - 248005, Uttarakhand, India","Dehradun, Uttarakhand",,,"+91 9927023649, 0135 2686779",sharmabrijesh050@gmail.com,www.brightspaceschooldoon.com
34.Brightlands School Dehradun,https://www.euttaranchal.com/schools/brightlands-school-dehradun.php,"1 Dick Road, Dalanwala, Dehradun 248001, Uttarakhand, India","Dehradun, Uttarakhand",,,+91-1352656157,kp.brightlandsschool@gmail.com,www.brightlandshool.co.in
35.Bristol Public School Dehradun,https://www.euttaranchal.com/schools/bristol-public-school-dehradun.php,"Vill. Paudwala, Rajawala Road, Via Premnagar, Near Selaqui, Dehradun",Dehradun,Dehradun,Uttarakhand,"+919997220916, +919557259580",bristolpublicschool@gmail.com,www.bristolpublicschool.com
"36.Brooklyn School, Dehradun",https://www.euttaranchal.com/schools/brooklyn-school-dehradun.php,"3/1, Curzon Road, Dalanwala, Dehradun - 248001, Uttarakhand, India","Dehradun, Uttarakhand",,,0135 - 2652426,brooklynschool@rediffmail.com,www.brooklynschool.org
37.Cambrian Hall School Dehradun,https://www.euttaranchal.com/schools/cambrian-hall-school-dehradun.php,"13, Young Road, Dehradun - 248001, Uttarakhand, India","Dehradun, Uttarakhand",Dehradun,Uttarakhand,"+91-9411393443,+91-0135-2753589","info@cambrianhall.in, admission.cambrianhall@gmail.com",www.cambrianhall.in
38.Carman Residential And Day School Dehradun,https://www.euttaranchal.com/schools/carman-residential-and-day-school-dehradun.php,"Shyampur, Prem Nagar  Dehradun - 248007, Uttrakhand","Dehradun, Uttarakhand",,,0135-2773381 | 7088999959,info@carmanschool.net,http://www.carmanschool.net/
"39.Charmwood International School, Dehradun",https://www.euttaranchal.com/schools/charmwood-international-school-dehradun.php,"4, Laxmi Road, Dalanwala,Prem Nagar, Dehradun, 248007, Uttarakhand, India","Dehradun, Uttarakhand",,,"+ 91 - 9897405255, + 91 - 8126182855",charmwoodinternational@gmail.com,www.charmwoodschool.com
"40.Children’s Academy, Dehradun",https://www.euttaranchal.com/schools/childrens-academy-dehradun.php,"83, Tagore Villa, Chakrata Road, Dehradun, Uttarakhand - 248001, India","Dehradun, Uttarakhand",,,0135-2659583,childrens_academy393@yahoo.com,www.childrensacademy.info
41.Col Brown Cambridge School Dehradun,https://www.euttaranchal.com/schools/col-brown-cambridge-school-dehradun.php,"5 Kasturba Road, Dalanwala Dehradun - 248001, Uttarakhand, India","Dehradun, Uttarakhand",Dehradun,Uttarakhand,"+91-6395114363, +91-7579495090, +91-135-2655233, +91-135-2714091, +91-135-2712228",principal@colbrownschool.com,www.colbrownschool.com
42.Colonel’s Academy Dehradun,https://www.euttaranchal.com/schools/colonels-academy-dehradun.php,"Ramgarh Shishambara, Shimla bypass road Dehradun, Uttarakhand.",Dehradun,Dehradun,Uttarakhand,0135-2693118/9,colonels.academy2006@gmail.com,http://www.colonelsacademy.net/
43.Constancia School Dehradun,https://www.euttaranchal.com/schools/constancia-school-dehradun.php,"Majra, Saharanpur Road, Dehradun,Uttarakhand, India","Dehradun, Uttarakhand",,,"+91-0135-2640177, 264236",,
44.DAV Public School Dehradun,https://www.euttaranchal.com/schools/dav-public-school-dehradun.php,"Sector 4, Defence Colony, Hardwar Road, Dehradun 248001, Uttarakhand, India","Dehradun, Uttarakhand",,,"+91-0135-2665059 , 2762405 , 2666446",dav_ddn@rediffmail.com,www.davschooldehradun.com
45.Dehradun Boys School,https://www.euttaranchal.com/schools/dehradun-boys-school.php,"4, Circular Road, Dalanwala Dehradun - 248 001, Uttarakhand, India","Dehradun, Uttarakhand",,,"0135-2710161, 2710171",info@dehradunboysschool.com,www.dehradunboysschool.com
"46.Dehradun Hills Academy, Dehradun",https://www.euttaranchal.com/schools/dehra-dun-hills-academy-dehradun.php,"No. 1 Jaswant Singh Marg, Mothrowala-Doodhli Road, Uttarakhand 248140","Dehradun, Uttarakhand",Dehradun,Uttarakhand,"+91-9012377773, +91-9411114921,","admissions.ddha@gmail.com, info@dehradunhillsacademy.co.in",www.dehradunhillsacademy.co.in
47.Doon Blossoms School Dehradun,https://www.euttaranchal.com/schools/doon-blossoms-school-dehradun.php,"7 Uggar Road, Dalanwala, Dehradun, Uttarakhand",Dehradun,Dehradun,Uttarakhand,"0135 – 2650393, 2655496",blossomsdoon@yahoo.co.in,https://www.dbeducationalsociety.com/dbs/
48.Doon Cambridge School Dehradun,https://www.euttaranchal.com/schools/doon-cambridge-school-dehradun.php,"20-E, Race Course, Dehradun – 248001, Uttarakhand, India","Dehradun, Uttarakhand",,,"0135 - 2625646, 2622874, 8266028880, 0135 - 2528111",dooncambridgeschool@gmail.com,www.dooncambridgeSchool.com
49.Doon Hempton School Dehradun,https://www.euttaranchal.com/schools/doon-hempton-school-dehradun.php,"Rajiv Juyal Road (Niranjanpur) Majra Dehradun, Uttarakhand",Dehradun,Dehradun,Uttarakhand,+(91)-135-2621523,doonhemptonschool@gmail.com,http://www.ut109cisce.org/
"50.Doon Heritage School, Dehradun",https://www.euttaranchal.com/schools/doon-heritage-school-dehradun.php,"Sunderban, Bhauwala, Dehradun, Uttarakhand, India","Dehradun, Uttarakhand",,,"0135 - 2102888, 7500299456, 9837045304",contact@doonheritageschool.com,www.doonheritageschool.com
51.Doon Presidency School Dehradun,https://www.euttaranchal.com/schools/doon-presidency-school-dehradun.php,"Prem Nagar, Dehradun 248007, Uttarakhand, India","Dehradun, Uttarakhand",,,"+91-0135-2771324, 2773216",,
"52.Doon Public Academy, Dehradun",https://www.euttaranchal.com/schools/doon-public-academy-dehradun.php,"Danda Lakhaud, Sahastradhara Road, Dehradun","Dehradun, Uttarakhand",,,+91-0135-2607756,doonpublicacademy@gmail.com,www.doonpublicacademy.com
"53.Doon Sarla Academy, Dehradun",https://www.euttaranchal.com/schools/doon-sarla-academy-dehradun.php,"46 D, Patthri Bagh,  Dehradun,248001  Uttarakhand","Dehradun, Uttarakhand",,,0135-2729208/7895151503,info@doonsarlaacademy.org,http://doonsarlaacademy.org/
54.Doon Valley Public School Dehradun,https://www.euttaranchal.com/schools/doon-valley-public-school-dehradun.php,"Garhi Cantt., Dehradun - 248003, Uttarakhand, India","Dehradun, Uttarakhand",,,+91-135-2753710,info@doonvalleypublicschool.com,www.doonvalleypublicschool.com
"55.Doon World School, Dehradun",https://www.euttaranchal.com/schools/doon-world-school-dehradun.php,"Raksha Vihar, Behind Aanchal Dairy Raipur Road, Dehradun - 248001",Dehradun,Dehradun,Uttarakhand,"0135 2788 366, 2788566",info@doonworldschool.com,www.doonworldschool.com
56.DPS Dehradun,https://www.euttaranchal.com/schools/dps-dehradun.php,"Kalagaon, Sahashtradhara Road, Dehradun - 248001","Dehradun, Uttarakhand",,,"+91 (135) 2607347, +91 (135) 2749533","infodpsdun@gmail.com, principaldpsdun@gmail.com",www.dpsdehradun.in
"57.DPSG, Dehradun",https://www.euttaranchal.com/schools/dpsg-dehradun.php,"Chakrata Road, Dehradun - 248197, Uttarakhand, India","Dehradun, Uttarakhand",,,"+ 91 - 7536801100, 0135 - 6900000",admissions.dpsgddn@dpsgs.org,www.ddn.dpsgs.org
"58.Dream Flowers, Dehradun",https://www.euttaranchal.com/schools/dream-flowers-dehradun.php,"Clock Tower, Opp. Shiv Mandir, Chakarata Rd, Bindaal Tirahya, Tagore Villa, Connaught Place, Dehradun, Uttarakhand","Dehradun, Uttarakhand",,,8755366560,,
"59.Drona’s International School, Dehradun",https://www.euttaranchal.com/schools/dronas-international-school-dehradun.php,"1 Municipal Road, Dehradun - 248001 Uttarakhand India","Dehradun, Uttarakhand",,,+91-135-2652671,dronasschool@gmail.com,https://www.dronas.edu.in/
"60.Edify World School, Dehradun",https://www.euttaranchal.com/schools/edify-world-school-dehradun.php,"Holkar Estate, Mothrowala-Cantt Road, Dehradun, 248001, Uttarakhand, India","Dehradun, Uttarakhand",,,"+ 91 - 7055511140, 7055511150",info@edifyschooldehradun.com,www.edifyworldschooldehradun.com
"61.Explorers Play School And Day Care, Dehradun",https://www.euttaranchal.com/pre-schools/explorers-play-school-day-care-dehradun.php,"76/22, Lane 1, Saket, (Opp. SilverCity Cinema) Rajpur Road, Dehradun","Dehradun, Uttarakhand",,,"0135-6006006, 7830801000",info@explorers-india.in,www.explorers-india.in
"62.Fylfot Public School, Dehradun",https://www.euttaranchal.com/schools/flyfot-public-school-dehradun.php,"Tea Estate, Banjarawala, Dehradun, Uttarakhand, India","Dehradun, Uttarakhand",,,0135 - 2532033,fylfotschool@gmail.com,www.fylfotschool.com
"63.Galaxian International School, Dehradun",https://www.euttaranchal.com/schools/galaxian-international-school-dehradun.php,"Choila (Near Wild Life Institute ), Saharanpur Rd, Transport Nagar, Subhash Nagar, Dehradun-248001, Uttarakhand, India","Dehradun, Uttarakhand",,,+ 91 - 7500291400,galaxianschool@yahoo.com,www.galaxianschool.in
"64.Gautam International School, Dehradun",https://www.euttaranchal.com/schools/gautam-international-school-dehradun.php,"Indira Nagar Colony , Vasant Vihar , Dehradun - 248001, Uttarakhand, India","Dehradun, Uttarakhand",,,"0135-2761694, 87554 56234","Gautam_school@rediffmail.com,  info@gautamschool.in",www.gautaminternationalschool.com
65.GD Goenka Public School Dehradun,https://www.euttaranchal.com/schools/gd-goenka-public-school-dehradun.php,"Knowledge Village, Ramgarh, Shimla Bypass Road Dehradun, Uttarakhand",Dehradun,Dehradun,Uttarakhand,"+91-98707 41468, +91-135-6170080",info@gdgoenkadehradun.com,www.gdgoenkadehradun.com
"66.George Public School, Dehradun",https://www.euttaranchal.com/schools/george-public-school-dehradun.php,"Nimbuwala, Garhi Cantt, Dehradun - 248001, Uttarakhand, India","Dehradun, Uttarakhand",,,0135-2750791,schoolgeorgepublic@gmail.com,www.georgepublicschool.com
"67.Glacier Public School, Dehradun",https://www.euttaranchal.com/schools/glacier-public-school-dehradun.php,"Gujronwala, Nathuwala ( Adjacent to Tunwala) Dehradun- 248008 , Uttarakhand, India","Dehradun, Uttarakhand",,,+91 9997334549 | +91 8077868899,glacier_school@yahoo.com,http://glacierpublicschool.com/
"68.Grace Academy, Dehradun",https://www.euttaranchal.com/schools/grace-academy-dehradun.php,"21-C, New Cantt Road, Dehradun - 248001, Uttarakhand, India","Dehradun, Uttarakhand",Dehradun,Uttarakhand,"0135 – 2740820, 0135 – 2743056","graceacd@graceacademyindia.com, principal@graceacademyindia.com",www.graceacademyindia.com
"69.GRD Academy, Dehradun",https://www.euttaranchal.com/schools/grd-academy-dehradun.php,"Niranjanpur, Patel Nagar, Dehradun 248001 Uttarakhand, India.","Dehradun, Uttarakhand",,,"+ 135 2628998, 9639900054","grddehradun@yahoo.co.in,",http://grdacademyniranjanpur.com/
"70.GRD World School, Dehradun",https://www.euttaranchal.com/schools/grd-world-school-dehradun.php,"Vill. Bhagwanpur, Near Bhauwala, Dehradun-248007, Uttarakhand, India","Dehradun, Uttarakhand",Dehradun,Uttarakhand,"+ 91 - 0135 - 2694847, 2694849","grd89dehradun@gmail.com, info@grdedu.com",http://grdworldschoolindehradun.com/
"71.Greenwood Hills School, Dehradun",https://www.euttaranchal.com/schools/greenwood-hills-school-dehradun.php,"Dudlimarg, Mothrowala, Dehradun - 248001, Uttarakhand, India","Dehradun, Uttarakhand",,,+91-746 506 0606 +91-705 551 2225,info@gwhschool.com,www.gwhschool.com
72.Guru Nanak Academy Dehradun,https://www.euttaranchal.com/schools/guru-nanak-academy-dehradun.php,"Raipur Road, Dehradun - 248001, Uttarakhand, India","Dehradun, Uttarakhand",,,"+91-0135-2787235, 2787345, 2781573",principalgna@gmail.com,http://www.gurunanakacademydehradun.com/
73.Gyan Einstein International School Dehradun,https://www.euttaranchal.com/schools/gyan-einstein-international-school-dehradun.php,"Shisham, Bada Parwal Road, Shimla Bypass Road, Dehradun",Dehradun,Dehradun,Uttarakhand,9837218608,geischool2015@gmail.com,https://geischool.com/
"74.Gyananda School, Dehradun",https://www.euttaranchal.com/schools/gyananda-school-dehradun.php,"49 Subhash Road, Dehradun Uttrakhand","Dehradun, Uttarakhand",,,"7060166440, 7060800465",info.gyanandadoon@gmail.com,www.gyanandadoon.org
"75.Hill Foundation School, Dehradun",https://www.euttaranchal.com/schools/hill-foundation-school-dehradun.php,"Indira Nagar Colony, Near Seemadwar, ITBP Rd, Dehradun-248006, Uttarakhand, India","Dehradun, Uttarakhand",,,,,
76.Hilton School Dehradun,https://www.euttaranchal.com/schools/hilton-school-dehradun.php,"Subhash Nagar, Dehradun 248001, Uttarakhand, India","Dehradun, Uttarakhand",,,+91-0135 2640240,,
"77.Him Jyoti School, Dehradun",https://www.euttaranchal.com/schools/him-jyoti-school-dehradun.php,"7KM Mile Stone, Sahastradhara Road P.O Gujrada, Dehradun","Dehradun, Uttarakhand",,,"0135 2608227, 2608230","himjyotioffice@gmail.com, aohimjyotischool@gmail.com,",www.himjyotischool.org
78.Jaswant Modern School Dehradun,https://www.euttaranchal.com/schools/jaswant-modern-school-dehradun.php,"Parson's Estate, 91, Rajpur Road, Dehradun - 248001, Uttarakhand, India","Dehradun, Uttarakhand",,,+91 - 135- 2744519,principal@jaswantmodern.net,www.jaswantmodern.net
79.Jimp Pioneer School Dehradun,https://www.euttaranchal.com/schools/jimp-pioneer-school-dehradun.php,"Pitamberpur, P.O. Badowala, Arkedia-Grant, Dehradun, Uttarakhand",Dehradun,Dehradun,Uttarakhand,+91 8958575612,jimppioneerschools@gmail.com,http://www.jimppioneerschool.in/
80.Kay Cee Public School Dehradun,https://www.euttaranchal.com/schools/kay-cee-public-school-dehradun.php,"Shashi Vihar, Govind Garh, Dehradun, Uttarakhand",Dehradun,Dehradun,Uttarakhand,0135-2530841,,http://www.kayceepublicschool.com/
81.Kelvin International School Dehradun,https://www.euttaranchal.com/schools/kelvin-international-school-dehradun.php,"Chakrata Road, Opp. Balaji Dham, Jhajra, Dehradun, Uttarakhand",Dehradun,Dehradun,Uttarakhand,8899352255,kisdoon@gmail.com,https://www.kelvinschool.org/
"83.Kinderpillar Preschool, Dehradun",https://www.euttaranchal.com/pre-schools/kinderpillar-preschool-dehradun.php,"Mount View Colony, Sahastradhara Road, Near Prerna Store, Dehradun, Uttarakhand","Dehradun, Uttarakhand",,,+ 91 - 9528703320,dehradun@kinderpillar.com,www.kinderpillar.com
"84.Krayonz Preschool, Dehradun",https://www.euttaranchal.com/pre-schools/krayonz-preschool-dehradun.php,"D-97, Nehru Colony, Dharampur, Dehradun, Uttarakhand","Dehradun, Uttarakhand",,,"+91-0135-2669660, 2669661",krayonzpreschool@gmail.com,www.krayonzdehradun.in
85.Lakshya Public School Dehradun,https://www.euttaranchal.com/schools/lakshya-public-school-dehradun.php,"Ganeshpur, Shimla Bypass Road, Dehradun, Uttarakhand",Dehradun,Dehradun,Uttarakhand,9557629506,,http://www.lpsdehradun.com/
"86.Le Grand International School, Dehradun",https://www.euttaranchal.com/schools/le-grand-international-school-dehradun.php,"Near Jolly Grant Airport, Rani, Pokhri, Dehradun, Uttarakhand",Dehradun,Dehradun,Uttarakhand,+91-9412058500,"info@lgisdehradun.com, admission@lgisdehradun.com",http://pintmail.com/
"87.Little Planet Pre School, Dehradun",https://www.euttaranchal.com/pre-schools/little-planet-pre-school-dehradun.php,"Plot No 116, Bima Vihar, Near Doon Trafalgar Apartments, IT Park road, Govind Vihar, Dehradun, Uttarakhand","Dehradun, Uttarakhand",,,+ 91 - 9639034114,namansingh2000@gmail.com,dehradun.littleplanetpreschool.com/
"88.Lucent International School, Dehradun",https://www.euttaranchal.com/schools/lucent-international-school.php,"Manduwala (Kothri), Suddhowala, Chakrata Road, Dehradun - 248007, Uttarakhand, India","Dehradun, Uttarakhand",,,"+91-9690017190,91",admin@lucentschools.co.in,www.lucentschools.in
89.Maa Anandmayee Memorial School Dehradun,https://www.euttaranchal.com/schools/maa-anandmayee-memorial-school-dehradun.php,"P.O, Raiwala, Dehradun, Uttarakhand, India","Dehradun, Uttarakhand",,,+91-0135-2484645,,
90.Maharishi Vidya Mandir Dehradun,https://www.euttaranchal.com/schools/maharishi-vidya-mandir-dehradun.php,"Paundha Road, Nanda Chowki Prem Nagar     Dehradun (248007) - Uttarakhand","Dehradun, Uttarakhand",,,0135 - 2970154,mvmdehradun@mssmail.org,https://mvmdehradun.org/index.mvm
"91.Manava Bharati India International School, Dehradun",https://www.euttaranchal.com/schools/manava-bharati-india-international-school-dehradun.php,"D-Block, Nehru Colony,  Haridwar Road, Dehradun - 248001, Uttarakhand, India","Dehradun, Uttarakhand",,,"0135 - 2669306, 9411112395",hr@mbs.ac.in,https://www.mbs.ac.in/
92.Marshall School Dehradun,https://www.euttaranchal.com/schools/marshall-school-dehradun.php,"40 East Canal Road, Dehradun, Uttarakhand, India","Dehradun, Uttarakhand",,,"+91-135-2658048, 09897335233",marshallschool@rediffmail.com,www.themarshallschool.com/
93.Max International School Dehradun,https://www.euttaranchal.com/schools/max-international-school-dehradun.php,"Thdc Colony, Banjarawala, Dehradun, Uttarakhand",Dehradun,Dehradun,Uttarakhand,"9050294300, 9050285300",info@maxinternationalschool.com,http://www.maxinternationalschool.com/
"94.Model School For Visually Handicapped, Dehradun",https://www.euttaranchal.com/schools/model-school-for-the-visually-handicapped-dehradun.php,"116 Rajpur Road, Dehradun - 248001, Uttarakhand, India","Dehradun, Uttarakhand",,,"+91-0135-2738060, 2744491","msvh@nivh.org.in, director@nivh.org.in",www.nivh.gov.in/index.php/departments/msvh
95.Moravian Institute Dehradun,https://www.euttaranchal.com/schools/moravian-institute-dehradun.php,"Zhan-Phan-Ling, Rajpur, Dehradun 248009, Uttarakhand, India","Dehradun, Uttarakhand",,,+91-135-273-4358,moravian.institute@gmail.com,www.moravianinstitute.com
96.Mount Fort Academy Dehradun,https://www.euttaranchal.com/schools/mount-fort-academy-dehradun.php,"Indira Nagar,  Dehradun, Pincode-248001 Uttarakhand.","Dehradun, Uttarakhand",,,"0135-2763427, 2760987, 7500-231-231",info@mountfortacademy.com,https://mountfortacademy.com/
"97.Nasa Kids School, Dehradun",https://www.euttaranchal.com/pre-schools/nasa-kids-school-dehradun.php,"Gujrara Chowk, Sahastradhara Road,  Near I. T. Park, Dehradun, Uttaranchal, India - 248001","Dehradun, Uttarakhand",,,"0135-2607181, 9456512251","office@nasakidsindia.com, seema@nasakidsindia.com",www.nasakidsindia.com
"98.Naseeba Hill Academy, Dehradun",https://www.euttaranchal.com/schools/naseeba-hill-academy-dehradun.php,"Raipur road, Sunderwala, Dehradun -248001, Uttrakhand, India","Dehradun, Uttarakhand",,,"+91-0135- 6450754, +91-0135- 6450293","info@naseebahillacademy.com, nha@naseebahillacademy.com",www.naseebahillacademy.com
99.New Doon Blossoms School Dehradun,https://www.euttaranchal.com/schools/new-doon-blossoms-school-dehradun.php,"Chak Danda Lakhond, Sahastradhara Road, Kandoli, Dehradun, Uttarakhand",Dehradun,Dehradun,Uttarakhand,+91-8881212703,newdoonblossoms@rediffmail.com,https://www.dbeducationalsociety.com
"100.North Point Children's Academy, Dehradun",https://www.euttaranchal.com/schools/north-point-children-academy-dehradun.php,"50,Tapkeshwar Road, Garhi Cantt., Dehradun Uttrakhand, 248003",Dehradun,Dehradun,Uttarakhand,"+91-9456311713,+91-9837203113",northpointdehradun@gmail.com,www.northpointdoon.org
"101.Olympus High School, Dehradun",https://www.euttaranchal.com/schools/olympus-high-school-dehradun.php,"Opp PCF Godown, PO- Majra, Dehradun - 248001, Uttarakhand, India","Dehradun, Uttarakhand",,,"+91-9027292711 ,+91 9639993414",info@olympushigh.in,http://olympushigh.in/
"102.Om Vidya Mandir School, Dehradun",https://www.euttaranchal.com/schools/om-vidya-mandir-school-dehradun.php,"17/2 West Rest Camp, Tyagi Road, 5 mins Walk from Dehradun Railway Station, Dehradun, Uttarakhand, India","Dehradun, Uttarakhand",,,"+ 91 - 0135 - 2621570, + 91 - 8979029159, + 91 - 9410550637",om.vidya.mandir.1973@gmail.com,
"103.Oxford School Of Excellence, Dehradun",https://www.euttaranchal.com/schools/oxford-school-excellence-dehradun.php,"5, Municipal Rd, Dalanwala, Dehradun, Uttarakhand 248001","Dehradun, Uttarakhand",,,"7505097861,8218347147",info@oxfordschoolofexcellence.com,www.oxfordschoolofexcellence.com
"104.Pestle Weed School, Dehradun",https://www.euttaranchal.com/schools/pestle-weed-college.php,"Oak Hill Estate, Mussoorie Diversion Road, Dehradun, Uttarakhand","Dehradun, Uttarakhand",Dehradun,Uttarakhand,"+91-0135-2734336, +91-9760099309","pestleweed_2k@yahoo.com, info@thepestleweedschool.com",https://thepestleweedschool.com/
105.Pine Hall School Dehradun,https://www.euttaranchal.com/schools/pine-hall-school-dehradun.php,"28, Rajpur Road, Dehradun -248001, Uttarakhand, India","Dehradun, Uttarakhand",,,"+91-0135-2742232, 2749115",pinehall1@indiatimes.com,www.pinehall.in
"106.Raja Rammohan Roy Academy, Dehradun",https://www.euttaranchal.com/schools/raja-rammohan-roy-academy-dehradun.php,"Saharanpur Road, Near ISBT, Dehradun - 248171, Uttarakhand , India","Dehradun, Uttarakhand",Dehradun,Uttarakhand,+91-(135) 2640544,rammohanroyacademy@gmail.com,http://rajarammohanroyacademy.com/
"107.S N Memorial Public School, Dehradun",https://www.euttaranchal.com/schools/s-n-memorial-public-school-dehradun.php,"Dehradun Road, Village Bhauwala, Via Prem Nagar, Dehradun Uttarakhand 248007 India","Dehradun, Uttarakhand",,,"7055504876, 9411110661",snmemorialpublicschool@gmail.com,www.snmemorialpublicschool.com/
"108.Saigrace Academy International, Dehradun",https://www.euttaranchal.com/schools/saigrace-academy-international-dehradun.php,"Near Shiv Mandir, Raipur Road, Raipur, Dehradun - 248001, Uttarakhand","Dehradun, Uttarakhand",,,0135-2789949,samsaigrace@gmail.com,www.saigraceacademy.com
"109.Sanfort Preschool, Dehradun",https://www.euttaranchal.com/pre-schools/sanfort-preschool-dehradun.php,"83/1, Ground Floor, Panditwari Phase-2, Near Vasant Vihar, Dehradun - 248001, Uttarakhand","Dehradun, Uttarakhand",,,"+91-9410095695, 8273343262",panditwadi@sanfortschools.com,panditwadi.sanfortschools.com
"110.Sanskar International School, Dehradun",https://www.euttaranchal.com/schools/sanskar-international-school-dehradun.php,"Badripore (Jogiwala),  Haridwar Road, Dehradun, India - 248005.","Dehradun, Uttarakhand",,,"+91-9930512993,+91-9193332605",info@sisdoon.com,www.sisdoon.com
"111.Saraswati Vidya Mandir Keshav Vidyapeeth, Dehradun",https://www.euttaranchal.com/schools/saraswati-vidya-mandir-keshav-vidyapeeth-dehradun.php,"Manduwala (Near Dolphin College), Premnagar, Dehradun - 248007, Uttarakhand",Dehradun,Dehradun,Uttarakhand,"+ 91 - 9410552256, 7500017416",svmsss@yahoo.com,www.svmdehradun.ac.in
"112.Scholars Home, Dehradun",https://www.euttaranchal.com/schools/scholars-home-dehradun.php,"153, Rajpur Road, Dehradun, Uttarakhand","Dehradun, Uttarakhand",Dehradun,Uttarakhand,"(91)-135-2734337, 2654935","scholarshome1949@gmail.com, shome@bsnl.in, contactus@scholarshome.com",www.scholarshome.com
"113.Seven Oaks School, Dehradun",https://www.euttaranchal.com/schools/seven-oaks-school-dehradun.php,"332 Garhi Cantonment, Dehradun - 248001 Uttarakhand, India","Dehradun, Uttarakhand",,,+91-135-2750882,sevenoaksschool@gmail.com,www.sevenoaksschool.org.in
"114.SHEMROCK Doon, Dehradun",https://www.euttaranchal.com/schools/shemrock-doon-dehradun.php,"171, Mandir lane, South Vanasthali, Ballupur Chowk, Dehradun - 248001, Uttarakhand, India","Dehradun, Uttarakhand",,,"0135 - 2759471, 9412954575",info@doon.shemrock.com,www.doon.shemrock.com
"115.SHEMROCK Little World, Dehradun",https://www.euttaranchal.com/schools/shemrock-world-dehradun.php,"73 B, Bhagirathpuram, Jakhan, Dehradun, Uttarakhand, India","Dehradun, Uttarakhand",,,+ 91 - 8439574500,littleworld@shemrock.com,www.littleworld.shemrock.com
"116.SHEMROCK Motherland, Dehradun",https://www.euttaranchal.com/schools/shemrock-motherland-dehradun.php,"Baronwala, Arcadia Grant, Shimla Bypass, Dehradun, Uttarakhand, India","Dehradun, Uttarakhand",,,"+ 91 - 9927007914, 9760675987",motherland@shemrock.com,www.motherland.shemrock.com
"117.SHEMROCK Navchetan, Dehradun",https://www.euttaranchal.com/schools/shemrock-navchetan-dehradun.php,"190/4, Kalidas Road, Near IIRS Dehradun, Uttarakhand, India","Dehradun, Uttarakhand",,,"0135 - 2741345, 8191012345, 8192012345",info@navchetan.shemrock.com,www.navchetan.shemrock.com
"118.SHEMROCK Primary Hills, Dehradun",https://www.euttaranchal.com/schools/shemrock-hills-dehradun.php,"219, Park Road, Dehradun, Uttarakhand, India","Dehradun, Uttarakhand",,,"0135-2721634, 9760799669, 9557015982",hills@shemrock.com,www.shemrockhills.com
"119.SHEMROCK Primary Roots, Dehradun",https://www.euttaranchal.com/schools/shemrock-primary-roots-dehradun.php,"11, Turner Road, Clementown, Dehradun - 248002, Uttarakhand, India","Dehradun, Uttarakhand",,,+ 91 - 9997466775,info@roots.shemrock.com,www.roots.shemrock.com
"120.SHEMROCK Rainbow, Dehradun",https://www.euttaranchal.com/schools/shemrock-rainbow-dehradun.php,"491, Indra Nagar Colony, Dehradun - 248001, Uttarakhand, India","Dehradun, Uttarakhand",,,"0135 - 2760337, 9837162460",info@rainbow.shemrock.com,www.rainbow.shemrock.com
"121.SHEMROCK Rainbow2, Dehradun",https://www.euttaranchal.com/schools/shemrock-rainbow2-dehradun.php,"Mauja Lane No. 1, Vishnupuram, Mothrawala Road, Dehradun, Uttarakhand, India","Dehradun, Uttarakhand",,,+ 91 - 9458116161,info@rainbow2.shemrock.com,www.rainbow2.shemrock.com
"122.SHEMROCK Sunshine, Dehradun",https://www.euttaranchal.com/schools/shemrock-sunshine-dehradun.php,"56-D, Race Course, Dehradun - 248001, Uttarakhand, India","Dehradun, Uttarakhand",,,"+ 91 - 9997485774, 9368056089",info@sunshine.shemrock.com,www.sunshine.shemrock.com
"123.Shigally Hills International Academy, Dehradun",https://www.euttaranchal.com/schools/shigally-hills-international-academy-dehradun.php,"P.O.Box No. 239, Doon Valley, Shigally Estate, Mussoorie Road, Via Malsi Deer Park, Guniyal Gaon, Dehradun. Uttarakhand - 248001","Dehradun, Uttarakhand",Dehradun,Uttarakhand,"+91-98370-98363 , +91-98370-98368",shigally2011@gmail.com,www.shigallyhill.com
"124.Shikshankur The Global School, Dehradun",https://www.euttaranchal.com/schools/shikshankur-school-dehradun.php,"Near ISBT, Haridwar Bypass Road, Dehradun - 248001, Uttarakhand",Dehradun,Dehradun,Uttarakhand,"+91 - 9997756666, 9105366667",admissions@shikshankur.edu.in,www.shikshankur.com
"125.Shivalik Academy, Selaqui",https://www.euttaranchal.com/schools/shivalik-academy-selaqui.php,"Rajawala Road, Selakui, Dehradun - 248197 Uttarakhand India","Dehradun, Uttarakhand",,,"+91-0135-6543755, +91-7217217788",shivalik.academy@yahoo.co.in,www.shivalikacademy.co.in
"126.Shiwalik International School, Dehradun",https://www.euttaranchal.com/schools/shiwalik-international-school-dehradun.php,28/32 Saharanpur Road Dehradun (Uttarakhand)-248001,"Dehradun, Uttarakhand",,,"(0135) 2722365, 2724964, 09897406663, 09897406663",info@shiwalikintschool.org,www.shiwalikintschool.org
127.Shri Guru Ram Rai Public School Dehradun,https://www.euttaranchal.com/schools/shri-guru-ram-rai-public-school-dehradun.php,"Patel Nagar, Dehradun, Uttarakhand",Dehradun,Dehradun,Uttarakhand,"0135-2624619, 0135-2724531",ptn.sgrr@gmail.com,http://www.sgrrpatelnagar.com/
"128.Shri Ram Centennial School, Dehradun",https://www.euttaranchal.com/schools/shri-ram-centennial-school-dehradun.php,"Knowledge Village, Sherpur, Shimla Road, Dehradun-248197, Uttarakhand","Dehradun, Uttarakhand",Dehradun,Uttarakhand,+91-8979958111,promo@srcsdoon.com,www.srcsdoon.com
"129.SLM Public School, Dehradun",https://www.euttaranchal.com/schools/slm-public-school-dehradun.php,"Badripur, Dehradun, Uttarakhand","Dehradun, Uttarakhand",,,"9897934187, 9412997736",slmpublicschooldoon@gmail.com,www.slmpublicschool.org.in
"130.Snow Flakes School, Dehradun",https://www.euttaranchal.com/schools/snow-flakes-school-dehradun.php,"94, Guru Road, Patel Nagar, Dehradun - 248001, Uttarakhand, India","Dehradun, Uttarakhand",,,"0135 - 2729704, 9412075036","snowflakeschools@gmail.com, info@snowflakeschool.co.in, school@snowflakeschool.co.in",www.snowflakeschool.org
131.Social Baluni Public School,https://www.euttaranchal.com/schools/social-baluni-public-school.php,"Brahmanwala, Near Radhaswami Satsang Bhawan, By-Pass Road, Dehradun",Dehradun,Dehradun,Uttarakhand,"+91-8193000102, +91-9690108899, +91-9690038899","info@sbpsdoon.com, admission@sbpsdoon.com",https://www.sbpsdoon.com/
"132.Spring Hills School, Dehradun",https://www.euttaranchal.com/schools/spring-hills-school-dehradun.php,"176, Saket Colony, Ajabpur Kalan, Dehradun, Uttarakhand","Dehradun, Uttarakhand",,,0135-2673678,spring.hills.school@gmail.com,www.springhillsschool.in/
"133.St Kabeer Academy, Dehradun",https://www.euttaranchal.com/schools/st-kabeer-academy-dehradun.php,"Miyanwala Chowk, Haridwar Rd, Harrawala, Dehradun, Uttarakhand 248005","Dehradun, Uttarakhand",,,0135 2688883-5 | 2688855,stkabeeracademy@yahoo.com,http://www.stkabeeracademy.in/
"134.St Mary’s Convent Sr Sec School, Vikasnagar",https://www.euttaranchal.com/schools/st-marys-convent-sr-sec-school-vikasnagar.php,"Bypass Road, Near Kotwali, , Vikasnagar, Dehradun - 248198, Uttarakhand, India","Dehradun, Uttarakhand",,,+ 91 - 1360 - 253145,smcs_vkn2006@rediffmail.com,http://www.stmarysvikasnagar.org/
"Anne’s School, Dehradun",https://www.euttaranchal.com/schools/st-annes-school-dehradun.php,"A-Block, Nehru Colony Near Sanatan Dharm Mandir Haridwar Road, Dehradun, Uttarakhand, India","Dehradun, Uttarakhand",,,"+ 91 - 9720528907, 0135 - 2672929",sas.doon@gmail.com,www.stannesdehradun.com
Nursery School Dehradun,https://www.euttaranchal.com/pre-schools/st-nursery-school-dehradun.php,"19/6, Rajpur Road Dehradun - 248001, Uttarakhand, India","Dehradun, Uttarakhand",,,0135 - 2654166,info@stnurseryschool.com,www.stnurseryschool.com
"137.Summer Valley School, Dehradun",https://www.euttaranchal.com/schools/summer-valley-school-dehradun.php,"18 Teg Bahadur Road, Dehradun - 248001, Uttarakhand, India.","Dehradun, Uttarakhand",,,"+91-0135-2673383  2678356, 2678355","summervalleyschool@gmail.com,  mainoffice@summervalleyschool.com",www.summervalleyschool.com
"138.Summerfield School, Dehradun",https://www.euttaranchal.com/schools/summerfield-school-dehradun.php,"Edon Bagh, West Hope Town, Herbertpur, Distt.-Dehradun PIN – 248142","Dehradun, Uttarakhand",,,01360-250268 / 09719146108,info@summerfielduk.com,www.summerfielduk.com
"139.Sunrise Academy, Dehradun",https://www.euttaranchal.com/schools/sunrise-academy-dehradun.php,"Opposite DEAL, Raipur Road, Dehradun, Uttarakhand","Dehradun, Uttarakhand",,,0135- 2788059,sunriseacad@gmail.com,www.sunriseacademyuk.com
"140.The Altus International School, Dehradun",https://www.euttaranchal.com/schools/altus-international-school-dehradun.php,"Chakrata Road, Village-Rampur, Dehradun -248197, Uttarakhand","Dehradun, Uttarakhand",,,"8266055531, 8272055531",thealtusinternational@gmail.com,www.thealtusinternational.com
"141.The Arcadia School, Dehradun",https://www.euttaranchal.com/schools/the-arcadia-school-dehradun.php,"Village & P.O. Jhajra, Premnagar, Dehradun - 248007, Uttarakhand, India","Dehradun, Uttarakhand",,,"+ 91 - 9719253900, 0135 - 2102116",tasjhj001@yahoo.com,
"142.The Aryan School, Dehradun",https://www.euttaranchal.com/schools/the-aryan-school-dehradun.php,"Malsi - Greens, Dehradun - 248001, Uttarakhand","Dehradun, Uttarakhand",Dehradun,Uttarakhand,"+91 8439311942, +91-135 -6630600, 2733066, 2736160",aryan@thearyanschool.com / principal@thearyanschool.com / mridula@thearyanschool.com,www.thearyanschool.com
143.The Bhagirathi International School,https://www.euttaranchal.com/schools/the-bhagirathi-international-school.php,"Kargi Road,(Near Narayan Vihar) Dehradun, Uttarakhand",Dehradun,Dehradun,Uttarakhand,"+91-8193000102, +91-9690108899, +91-9690038899","info@sbpsdoon.com, admission@sbpsdoon.com",https://www.sbpsdoon.com/
"Sec. School, Dehradun",https://www.euttaranchal.com/schools/the-cambridge-sr-sec-school-dehradun.php,"Poundha Road ,Prem Nagar   Nanda Ki Choki-(2.8 Km from Nanda Ki Chowki), Dehradun (UK)","Dehradun, Uttarakhand",,,0135-2622487 /9219776668/7017813616,cambridge.sarthak@gmail.com,http://www.cambridgedoon.co.in/index.php
"145.The Doon Girls School, Dehradun",https://www.euttaranchal.com/schools/doon-girls-school-dehradun.php,"4, Circular Road, Dalanwala Dehradun - 248 001, Uttarakhand, India","Dehradun, Uttarakhand",Dehradun,Uttarakhand,"+91-8057888868, +91-135-2710161, +91-135-2712085, +91-135-2652429, +91-135-2713542,43,44","doongirlsschool@gmail.com, admission@thedoongirlsschool.com, info@thedoongirlsschool.com,",www.thedoongirlsschool.com
146.The Doon Grammar School Dehradun,https://www.euttaranchal.com/schools/doon-grammar-school-dehradun.php,"E-8 Koti Athurwala, Bhaniyawala, Dehradun-248140, Uttarakhand, India",Dehradun,Dehradun,Uttarakhand,0135-2410362,doongrammarschool@yahoo.in,http://doongrammarschool.edu.in
"147.The Heritage School, Dehradun",https://www.euttaranchal.com/schools/heritage-school-dehradun.php,"14/6-New Road,Dehradun, Uttarakhand,India","Dehradun, Uttarakhand",,,0135-2656155,heritageddn@gmail.com,www.theheritageschoolddn.com
"148.The Himalayan Public School, Dehradun",https://www.euttaranchal.com/schools/himalayan-public-school-dehradun.php,"Hardwar Saharanpur By Pass, Kargi Grant, Chander Vihar, P.O. Banjarawala Dehradun-248001 Uttarakhand (India)",Dehradun,,,"0135-2720362, 2722884",thehimalayanpublicschool@yahoo.com,http://thehimalayanpublicschool.com/
149.The Horizon School Dehradun,https://www.euttaranchal.com/schools/horizon-school-dehradun.php,"Near Sain Chowki Thano Road, Lower Jolly Grant, Dehradun, Uttarakhand",Dehradun,Dehradun,Uttarakhand,+91 7455055371,thehorizonschool@hotmail.com,http://horizonschooldun.com/
"150.The Indian Academy, Dehradun",https://www.euttaranchal.com/schools/indian-academy-dehradun.php,"Jogiwala, Mussoorie Bypass, Garhwali Colony, Near Dobhal Chowk, Nehru Gram, Dehradun, Uttarakhand","Dehradun, Uttarakhand",,,"+91 - 0135 - 2781919, 9997292442",theindianacademy@gmail.com,www.theindianacademy.com
"151.The Indian Cambridge School, Dehradun",https://www.euttaranchal.com/schools/the-indian-cambridge-school-dehradun.php,"12 Chander Road, Dalanwala, Dehradun - 248001, Uttarakhand","Dehradun, Uttarakhand",,,"0135-26541453, 07249909096","theics@live.in,  info@theindiancambridge.edu.in",www.theindiancambridge.edu.in
"152.The Indian Public School, Dehradun",https://www.euttaranchal.com/schools/indian-public-school-dehradun.php,"Mrityunjaydham, P.O. Rajawala, Via Premnagar, Dehradun - 248007, Uttarakhand, India","Dehradun, Uttarakhand",Dehradun,Uttarakhand,"09568012776, 09568012778",info@indianpublicschool.com,www.indianpublicschool.com
"153.The Montessori School, Dehradun",https://www.euttaranchal.com/schools/the-montessori-school-dehradun.php,"14, Street No.1, Rajendra Nagar, Dehradun-248001, Uttarakhand, India","Dehradun, Uttarakhand",,,0135 - 2757168,info@themontessoridehradun.org,http://themontessoridehradun.com/
"154.The OASIS School, Dehradun",https://www.euttaranchal.com/schools/the-oasis-school-dehradun.php,"The OASIS, Sports City. New Raipur – Thano Airport Expressway, Raipur, Dehradun – 248008",Dehradun,Dehradun,Uttarakhand,"+91 7252919151, 7300701624",contactus@theoasisdoon.com,www.theoasisdoon.com
"155.The Poly Kids School, Dehradun",https://www.euttaranchal.com/pre-schools/poly-kids-school-dehradun.php,"26/2 Teg Bahadur Road, Lane No.4 Dalanwala, Dehradun, Uttarakhand","Dehradun, Uttarakhand",,,"0135-266-9377, 9897006426",info@thepolykids.com,http://www.thepolykids.com
"156.The Presidency International School, Dehradun",https://www.euttaranchal.com/schools/presidency-international-school.php,"Haridwar Road, Bhaniyawala, Dehradun - 248144, Uttarkhand","Dehradun, Uttarakhand",,,+91 - 8859005552,thepresidencyschool@gmail.com,www.thepresidencyschool.com
"157.The Royal College, Dehradun",https://www.euttaranchal.com/schools/the-royal-college-dehradun.php,"Rajawala, P.O Ashok Ashram, Yamnotri Road","Dehradun, Uttarakhand",Dehradun,Uttarakhand,"+91-9634058777, 9639645777",principal@royalcollege.in,www.royalcollege.in
"158.The Vivekananda School, Dehradun",https://www.euttaranchal.com/schools/vivekananda-school-dehradun.php,"Jogiwala, Haridwar Road (Near Celebration Garden), Dehradun – 248005, Uttarakhand, India","Dehradun, Uttarakhand",,,"0135 - 2666934, 6540118, (+91)- 8267 090 118",vivekanandaschool@yahoo.com,www.vivekanandaschool.edu.in
"159.Times World School, Dehradun",https://www.euttaranchal.com/schools/times-world-school-dehradun.php,"School Plot No. 1, Indira Nagar, Dehradun Uttarakhand 248001, India","Dehradun, Uttarakhand",,,"+91-8191888807, +91-9219516838",timesworldschool123@yahoo.com,https://timesworldschool.com/
"160.Touch Wood School, Dehradun",https://www.euttaranchal.com/schools/touch-wood-school-dehradun.php,"Danda Nooriwala, Sahastradhara Road, Dehradun, Uttarakhand","Dehradun, Uttarakhand",,,"91-7055449000, 0135 260 7359",twsddn@gmail.com,http://www.touchwoodschool.org/
161.Trinity High School Dehradun,https://www.euttaranchal.com/schools/trinity-high-school-dehradun.php,"Chakrata Road, Dhoolot, Selakui Uttarakhand",Dehradun,Dehradun,Uttarakhand,"+91-9719113798, 7579420459",,http://www.trinityhighschool.co.in/
162.Unison World School Dehradun,https://www.euttaranchal.com/schools/unison-world-school-dehradun.php,"Kirsali Greens, Mussoorie Diversion Road, P.O. Bhagawantpur, Dehradun - 248009, Uttarakhand, India","Dehradun, Uttarakhand",Dehradun,Uttarakhand,"+91 135.7113000, +91 135.3000000  +91 98370 22222",admissions@uws.edu.in,www.uws.edu.in
"163.Universal Academy, Dehradun",https://www.euttaranchal.com/schools/universal-academy-dehradun.php,"Lane No: C-22, Turner Road, Clement Town, Dehradun - 248002, Uttarakhand, India","Dehradun, Uttarakhand",Dehradun,Uttarakhand,"+91-9568866888, +91-0135-2644101,2644102",universalacademydehradun@gmail.com,https://www.universalacademydehradun.edu.in/
"164.Utopia Primary School, Dehradun",https://www.euttaranchal.com/schools/utopia-primary-school-dehradun.php,"11, Nemi Road, Dalanwala, Dehradun, Uttarakhand",Dehradun,Dehradun,Uttarakhand,7088888856,"info@utopia.edu.in, utopiaprimaryschool@gmail.com",http://www.utopia.edu.in/
"165.Viverly Public School, Dehradun",https://www.euttaranchal.com/schools/viverly-public-school-dehradun.php,"144, Neshville Road, Dehradun, Uttarakhand, India","Dehradun, Uttarakhand",,,"+91-9837069968 ,9897015171",info@viverlypublicschool.com,www.viverlypublicschool.com
